,des,pha,neo,e,a,q,i,om,w,ma,tp,per,n,ad,moid,moid_jup,t_jup,rms,H
14156,2016 QE44,False,True,0.216,1.32,1.04,35.6,351.0,243.0,320.0,2460262.299,555.0,0.648,1.61,0.144,3.51,4.736,0.69,21.57
14157,2016 QE45,True,True,0.526,1.25,0.594,4.85,18.9,95.7,292.0,2460296.742,512.0,0.702,1.91,0.00642,3.22,4.984,0.53,21.79
14158,2016 QE84,False,True,0.396,1.16,0.698,35.1,149.0,357.0,93.4,2460082.583,454.0,0.792,1.61,0.291,3.4,5.208,0.59,20.15
14159,2016 QF44,False,True,0.428,2.13,1.22,2.41,132.0,254.0,78.6,2459952.032,1140.0,0.316,3.05,0.228,2.41,3.595,0.58,21.33
14160,2016 QF45,False,True,0.649,2.38,0.836,6.55,268.0,162.0,308.0,2460393.777,1340.0,0.269,3.92,0.0603,1.43,3.209,0.31,20.98
14161,2016 QF84,False,True,0.304,1.48,1.03,10.4,152.0,137.0,352.0,2460214.503,656.0,0.549,1.93,0.0642,3.27,4.519,0.71,23.5
14162,2016 QG10,False,True,0.309,1.68,1.16,7.3,327.0,10.5,85.6,2460012.046,793.0,0.454,2.19,0.149,3.19,4.175,0.5,24.5
14163,2016 QG44,False,True,0.243,1.18,0.892,17.3,351.0,236.0,273.0,2460313.451,467.0,0.771,1.46,0.0159,3.56,5.298,0.36,22.1
14164,2016 QH44,False,True,0.598,2.16,0.868,2.52,327.0,100.0,50.7,2460037.275,1160.0,0.311,3.45,0.0233,1.91,3.441,0.65,22.33
14165,2016 QJ10,False,True,0.499,2.49,1.25,3.04,194.0,174.0,275.0,2460540.782,1440.0,0.25,3.74,0.248,1.73,3.285,0.51,21.8
14166,2016 QJ44,True,True,0.318,1.38,0.944,10.4,323.0,161.0,357.0,2460204.751,595.0,0.605,1.82,0.0289,3.25,4.722,0.36,20.25
14167,2016 QK10,False,True,0.443,2.0,1.11,1.16,227.0,127.0,173.0,2459705.455,1030.0,0.35,2.88,0.106,2.57,3.718,0.42,25.0
14168,2016 QK44,False,True,0.506,2.47,1.22,8.13,154.0,220.0,283.0,2460505.606,1420.0,0.254,3.72,0.238,1.77,3.283,0.68,22.6
14169,2016 QL10,False,True,0.365,1.66,1.05,2.94,160.0,152.0,115.0,2459951.463,781.0,0.461,2.27,0.0457,3.03,4.185,0.45,25.8
14170,2016 QL44,False,True,0.563,1.84,0.806,6.0,170.0,248.0,337.0,2457692.705,915.0,0.393,2.88,0.00909,2.51,3.800,0.59,25.1
14171,2016 QM10,False,True,0.541,2.28,1.05,2.28,231.0,144.0,5.62,2460180.849,1260.0,0.286,3.52,0.0526,1.96,3.393,0.44,22.7
14172,2016 QM11,False,True,0.722,2.78,0.773,19.2,327.0,153.0,168.0,2459410.916,1690.0,0.213,4.78,0.148,0.622,2.828,0.37,18.24
14173,2016 QM44,False,True,0.314,1.34,0.922,18.8,335.0,84.2,137.0,2459983.974,569.0,0.633,1.77,0.121,3.68,4.785,0.44,23.7
14174,2016 QN11,False,True,0.573,2.22,0.949,17.8,307.0,108.0,17.6,2460141.208,1210.0,0.298,3.49,0.161,2.29,3.362,0.4,21.17
14175,2016 QN44,False,True,0.514,1.71,0.831,10.0,162.0,253.0,335.0,2457687.141,817.0,0.441,2.59,0.0334,2.85,4.011,0.45,22.3
14176,2016 QO11,False,True,0.441,2.2,1.23,6.44,142.0,203.0,50.6,2460033.057,1190.0,0.302,3.17,0.225,2.25,3.525,0.34,22.1
14177,2016 QO44,False,True,0.272,1.53,1.12,17.2,334.0,337.0,17.3,2457600.256,693.0,0.519,1.95,0.119,3.36,4.392,0.46,23.9
14178,2004 BM11,False,True,0.525,1.45,0.688,3.62,42.5,176.0,64.1,2460087.255,636.0,0.566,2.21,0.0623,2.76,4.491,0.41,21.96
14179,2016 QP44,False,True,0.236,1.46,1.12,36.7,162.0,158.0,12.6,2457609.987,645.0,0.558,1.81,0.121,3.61,4.388,0.59,23.26
14180,2000 GW127,False,True,0.727,2.25,0.613,6.64,127.0,333.0,1.31,2460196.02,1230.0,0.293,3.88,0.0971,1.35,3.213,0.56,19.4
14181,2016 QQ44,False,True,0.564,2.44,1.06,1.35,278.0,77.4,301.0,2460426.615,1390.0,0.259,3.81,0.0635,1.65,3.265,0.4,25.5
14182,2016 QR44,False,True,0.511,2.11,1.03,6.29,176.0,135.0,114.0,2459845.22,1120.0,0.321,3.19,0.0634,2.14,3.553,0.5,23.2
14183,2016 QS11,False,True,0.266,1.4,1.03,1.4,170.0,201.0,74.9,2460075.039,603.0,0.597,1.77,0.0253,3.7,4.725,0.44,25.8
14184,2016 QS44,False,True,0.58,1.53,0.642,6.69,176.0,261.0,328.0,2457693.329,689.0,0.523,2.41,0.0167,2.91,4.286,0.31,24.4
14185,2016 QU1,False,True,0.905,2.23,0.212,23.3,259.0,191.0,27.7,2460107.039,1220.0,0.296,4.25,0.246,1.06,2.845,0.61,19.2
14186,2016 QX10,False,True,0.274,1.33,0.963,3.63,101.0,175.0,259.0,2460357.278,558.0,0.646,1.69,0.0344,3.42,4.894,0.41,23.7
14187,2016 QY1,False,True,0.6,2.28,0.913,2.57,159.0,114.0,14.8,2457577.616,1260.0,0.286,3.65,0.0174,1.49,3.337,0.4,23.28
14188,2016 QY10,False,True,0.254,1.52,1.14,9.84,147.0,233.0,242.0,2460425.107,686.0,0.525,1.91,0.176,3.57,4.448,0.66,23.3
14189,2016 QY44,False,True,0.402,2.13,1.27,7.51,129.0,177.0,105.0,2459869.534,1140.0,0.317,2.99,0.259,2.29,3.604,0.54,22.9
14190,2016 QY83,False,True,0.264,1.72,1.27,34.8,163.0,258.0,355.0,2460211.655,827.0,0.435,2.18,0.465,3.41,3.930,0.65,20.9
14191,2016 QY84,False,True,0.155,1.16,0.982,1.94,162.0,128.0,33.9,2457586.419,458.0,0.786,1.34,0.00771,3.76,5.408,0.66,29.575
14192,2016 QZ1,False,True,0.46,1.28,0.689,8.09,317.0,114.0,271.0,2460331.076,528.0,0.682,1.87,0.0489,3.47,4.943,0.47,22.8
14193,2016 QZ10,False,True,0.405,2.15,1.28,3.07,358.0,337.0,87.3,2459922.211,1150.0,0.314,3.01,0.268,2.37,3.598,0.6,23.1
14194,2016 QZ44,False,True,0.336,1.74,1.15,10.3,319.0,344.0,43.1,2460100.459,836.0,0.431,2.32,0.143,2.94,4.066,0.46,23.9
14195,2016 QZ83,False,True,0.366,1.95,1.24,4.63,283.0,134.0,164.0,2459745.323,997.0,0.361,2.67,0.257,2.72,3.801,0.59,20.9
14196,2016 RA1,False,True,0.591,2.64,1.08,15.6,164.0,172.0,1.63,2457630.37,1570.0,0.229,4.21,0.077,1.22,3.076,0.56,24.9
14197,2016 RA18,False,True,0.496,2.27,1.14,6.71,191.0,163.0,16.4,2460143.747,1250.0,0.288,3.4,0.144,2.06,3.431,0.49,23.1
14198,2016 RA20,False,True,0.706,2.66,0.781,9.07,108.0,160.0,13.7,2457579.517,1580.0,0.228,4.53,0.104,0.635,2.958,0.34,23.0
14199,2016 RA34,False,True,0.308,0.942,0.652,3.64,358.0,220.0,337.0,2460221.408,334.0,1.08,1.23,0.0209,3.74,6.333,0.43,24.5
14200,2016 RA41,False,True,0.521,2.59,1.24,3.25,176.0,198.0,237.0,2460719.766,1520.0,0.236,3.94,0.241,1.52,3.210,0.4,21.8
14201,2016 RB1,False,True,0.281,0.873,0.628,1.79,345.0,136.0,106.0,2460112.978,298.0,1.21,1.12,6.06e-05,3.94,6.744,0.36,28.3
14202,2016 RB18,False,True,0.536,2.49,1.16,9.35,205.0,147.0,278.0,2460526.375,1440.0,0.25,3.83,0.175,1.69,3.239,0.49,22.0
14203,2016 RB20,False,True,0.513,2.11,1.03,6.92,54.3,251.0,13.0,2457599.156,1120.0,0.321,3.19,0.1,2.12,3.551,0.35,24.3
14204,2016 RB34,False,True,0.109,1.14,1.01,9.0,347.0,313.0,318.0,2460252.211,443.0,0.812,1.26,0.0336,3.84,5.492,0.39,25.0
14205,2016 RB41,False,True,0.523,2.44,1.16,2.74,212.0,160.0,296.0,2460446.365,1390.0,0.259,3.71,0.165,1.76,3.300,0.65,24.1
14206,2016 RC18,False,True,0.504,2.09,1.04,2.09,306.0,15.7,7.49,2457617.576,1100.0,0.327,3.14,0.0247,2.2,3.586,0.25,26.1
14207,2016 RC20,False,True,0.364,1.67,1.06,30.7,194.0,186.0,64.7,2460058.696,789.0,0.456,2.28,0.0642,3.18,4.021,0.39,20.4
14208,2016 RC34,False,True,0.475,2.03,1.06,4.18,179.0,173.0,151.0,2459757.091,1060.0,0.341,2.99,0.0598,2.45,3.660,0.5,26.42
14209,2016 RC41,False,True,0.441,2.19,1.23,5.26,193.0,141.0,61.8,2459996.675,1190.0,0.303,3.16,0.226,2.25,3.533,0.39,23.3
14210,2016 RD18,False,True,0.6,2.58,1.03,3.07,169.0,158.0,3.83,2457623.4,1510.0,0.238,4.13,0.027,1.25,3.142,0.26,26.5
14211,2016 RD20,False,True,0.568,2.5,1.08,2.22,165.0,191.0,276.0,2460535.859,1440.0,0.249,3.92,0.0736,1.53,3.221,0.45,24.8
14212,2016 RD34,False,True,0.0347,1.05,1.01,1.96,350.0,11.0,185.0,2460390.389,391.0,0.921,1.08,0.00398,3.94,5.869,0.38,27.7
14213,2016 RE18,False,True,0.463,1.91,1.03,2.81,307.0,54.2,229.0,2460552.502,968.0,0.372,2.8,0.0442,2.67,3.792,0.47,23.7
14214,2016 RE20,False,True,0.366,1.64,1.04,5.32,161.0,248.0,83.8,2460021.21,770.0,0.467,2.25,0.0949,3.16,4.206,0.46,23.2
14215,2016 RE34,False,True,0.322,1.49,1.01,1.56,170.0,176.0,309.0,2460294.952,664.0,0.542,1.97,0.00305,3.44,4.507,0.41,28.3
14216,2016 RF17,False,True,0.431,2.11,1.2,5.76,333.0,332.0,13.4,2457595.789,1120.0,0.321,3.02,0.191,2.25,3.608,0.66,23.5
14217,2016 RF20,False,True,0.421,1.98,1.15,6.13,150.0,218.0,177.0,2459700.688,1020.0,0.354,2.81,0.157,2.65,3.742,0.56,23.9
14218,2016 RF34,False,True,0.365,1.56,0.993,10.3,350.0,25.1,196.0,2460526.208,715.0,0.503,2.14,0.011,3.34,4.329,0.35,24.5
14219,2016 RF40,False,True,0.156,1.28,1.08,20.9,183.0,249.0,243.0,2460371.789,529.0,0.68,1.48,0.168,3.75,4.979,0.5,21.67
14220,2016 RG17,False,True,0.569,0.811,0.349,22.0,170.0,29.1,311.0,2460236.664,267.0,1.35,1.27,0.0437,3.7,7.015,0.39,23.0
14221,2016 RG18,False,True,0.176,1.24,1.02,21.9,349.0,50.9,350.0,2460214.095,504.0,0.715,1.46,0.0705,3.88,5.092,0.47,23.2
14222,2016 RG20,False,True,0.263,1.02,0.753,17.2,161.0,337.0,151.0,2460042.05,377.0,0.954,1.29,0.203,3.73,5.908,0.6,23.6
14223,2016 RG40,False,True,0.549,2.74,1.23,14.5,228.0,204.0,167.0,2459432.133,1650.0,0.218,4.24,0.262,1.18,3.076,0.39,18.83
14224,2016 RH17,False,True,0.301,1.38,0.968,24.2,168.0,211.0,341.0,2457669.424,595.0,0.605,1.8,0.00546,3.68,4.655,0.5,23.5
14225,2016 RH18,False,True,0.263,1.55,1.14,8.94,69.4,358.0,179.0,2459850.681,702.0,0.513,1.95,0.153,3.35,4.405,0.39,21.62
14226,2016 RH20,False,True,0.379,1.63,1.01,13.6,1.47,275.0,36.4,2457564.651,761.0,0.473,2.25,0.183,3.0,4.198,0.55,23.4
14227,2016 RH40,False,True,0.267,1.32,0.966,15.2,178.0,233.0,326.0,2457701.468,553.0,0.651,1.67,0.0438,3.76,4.882,0.36,24.3
14228,2016 RJ17,False,True,0.269,1.51,1.11,28.9,168.0,208.0,256.0,2460397.774,681.0,0.529,1.92,0.128,3.57,4.346,0.47,23.5
14229,2016 RJ18,False,True,0.394,1.81,1.1,4.91,20.7,312.0,318.0,2460303.824,893.0,0.403,2.53,0.11,2.86,3.949,0.67,23.5
14230,2016 RJ20,False,True,0.522,0.925,0.442,5.15,153.0,55.7,41.7,2460162.88,325.0,1.11,1.41,0.00836,3.55,6.342,0.67,23.6
14231,2016 RJ40,False,True,0.507,2.09,1.03,3.43,321.0,6.84,6.58,2457624.276,1110.0,0.325,3.16,0.0205,2.21,3.577,0.63,25.2
14232,2016 RK17,False,True,0.511,2.11,1.03,6.89,166.0,152.0,7.25,2457616.008,1120.0,0.322,3.18,0.0416,2.17,3.556,0.61,25.3
14233,2016 RK20,False,True,0.341,1.71,1.13,8.53,154.0,175.0,54.5,2460076.504,819.0,0.44,2.3,0.119,3.07,4.105,0.77,24.6
14234,2016 RK40,False,True,0.622,2.24,0.845,4.71,345.0,306.0,12.5,2457601.115,1220.0,0.295,3.63,0.00056,1.61,3.351,0.43,27.7
14235,2016 RL17,False,True,0.332,0.857,0.573,3.19,166.0,318.0,188.0,2460338.695,290.0,1.24,1.14,0.00144,3.92,6.833,0.69,26.58
14236,2016 RL20,False,True,0.401,1.26,0.752,19.8,358.0,92.7,299.0,2460287.694,514.0,0.701,1.76,0.0247,3.58,4.991,0.46,23.57
